
# Worst residual: 264.15 km
# MJD 60944.000000 (2025 Sep 26  0:00)
A11qRqd = A11ra0W = ZTF104R
1 79871U 25000ZYX 25269.49919926  .00000000  00000-0  00000-0 0 27970
2 79871 049.3350 206.7462 6324130 348.1031 061.6799 00.61071030    00

# Worst residual: 263.36 km
# MJD 60945.000000 (2025 Sep 27  0:00)
A11qRqd = A11ra0W = ZTF104R
1 79871U 25000ZYX 25270.49919926  .00000000  00000-0  00000-0 0 27972
2 79871 049.5685 206.6357 6469700 349.2580 278.6280 00.61521232    08

# Worst residual: 129.28 km
# MJD 60946.000000 (2025 Sep 28  0:00)
A11qRqd = A11ra0W = ZTF104R
1 79871U 25000ZYX 25271.49919926  .00000000  00000-0  00000-0 0 27973
2 79871 049.6705 206.5841 6538052 350.5191 137.5555 00.60614159    07

# Worst residual: 237.88 km
# MJD 60947.000000 (2025 Sep 29  0:00)
A11qRqd = A11ra0W = ZTF104R
1 79871U 25000ZYX 25272.49919926  .00000000  00000-0  00000-0 0 27974
2 79871 049.8815 206.5805 6693129 351.7319 356.3739 00.61951232    05

# Worst residual: 160.20 km
# MJD 60948.000000 (2025 Sep 30  0:00)
A11qRqd = A11ra0W = ZTF104R
1 79871U 25000ZYX 25273.49919926  .00000000  00000-0  00000-0 0 27975
2 79871 050.0205 206.4799 6804811 352.5138 213.8254 00.60923513    02

# Worst residual: 236.13 km
# MJD 60949.000000 (2025 Oct  1  0:00)
A11qRqd = A11ra0W = ZTF104R
1 79871U 25000ZYX 25274.49919926  .00000000  00000-0  00000-0 0 27976
2 79871 050.1258 206.4852 6934477 353.8863 073.4221 00.60874330    08

# Worst residual: 260.92 km
# MJD 60950.000000 (2025 Oct  2  0:00)
A11qRqd = A11ra0W = ZTF104R
1 79871U 25000ZYX 25275.49919926  .00000000  00000-0  00000-0 0 27977
2 79871 050.3491 206.4351 7092629 354.8078 290.8217 00.61665266    04

# Worst residual: 140.30 km
# MJD 60951.000000 (2025 Oct  3  0:00)
A11qRqd = A11ra0W = ZTF104R
1 79871U 25000ZYX 25276.49919926  .00000000  00000-0  00000-0 0 27978
2 79871 050.3872 206.3897 7160463 355.6362 149.7957 00.60691407    06

# Worst residual: 297.67 km
# MJD 60952.000000 (2025 Oct  4  0:00)
A11qRqd = A11ra0W = ZTF104R
1 79871U 25000ZYX 25277.49919926  .00000000  00000-0  00000-0 0 27979
2 79871 050.5360 206.3998 7309675 356.6677 009.1258 00.61776253    09

# Worst residual: 165.36 km
# MJD 60953.000000 (2025 Oct  5  0:00)
A11qRqd = A11ra0W = ZTF104R
1 79871U 25000ZYX 25278.49919926  .00000000  00000-0  00000-0 0 27970
2 79871 050.6550 206.3292 7424509 357.2749 226.4643 00.61024360    06

# Worst residual: 144.28 km
# MJD 60954.000000 (2025 Oct  6  0:00)
A11qRqd = A11ra0W = ZTF104R
1 79871U 25000ZYX 25279.49919926  .00000000  00000-0  00000-0 0 27971
2 79871 050.7316 206.3266 7534190 358.4681 086.0494 00.60743757    05

# Worst residual: 291.55 km
# MJD 60955.000000 (2025 Oct  7  0:00)
A11qRqd = A11ra0W = ZTF104R
1 79871U 25000ZYX 25280.49919926  .00000000  00000-0  00000-0 0 27973
2 79871 050.8637 206.3029 7699066 359.2547 303.8015 00.61766414    08

# Worst residual: 155.29 km
# MJD 60956.000000 (2025 Oct  8  0:00)
A11qRqd = A11ra0W = ZTF104R
1 79871U 25000ZYX 25281.49919926  .00000000  00000-0  00000-0 0 27974
2 79871 050.8740 206.2813 7767448 359.7886 162.6696 00.60762164    07

# Worst residual: 279.87 km
# MJD 60957.000000 (2025 Oct  9  0:00)
A11qRqd = A11ra0W = ZTF104R
1 79871U 25000ZYX 25282.49919926  .00000000  00000-0  00000-0 0 27975
2 79871 050.9101 206.2708 7906085 000.7371 022.2437 00.61534427    00

# Worst residual: 169.64 km
# MJD 60958.000000 (2025 Oct 10  0:00)
A11qRqd = A11ra0W = ZTF104R
1 79871U 25000ZYX 25283.49919926  .00000000  00000-0  00000-0 0 27976
2 79871 050.8856 206.2440 8015075 001.1560 239.6868 00.61116092    01

# Worst residual: 104.70 km
# MJD 60959.000000 (2025 Oct 11  0:00)
A11qRqd = A11ra0W = ZTF104R
1 79871U 25000ZYX 25284.49919926  .00000000  00000-0  00000-0 0 27977
2 79871 050.8986 206.2169 8099233 002.1305 099.4013 00.60801070    09
